[{"OBJECT_NAME":"ZACUBE-1 (TSHEPISOSAT)","OBJECT_ID":"2013-066B","EPOCH":"2026-03-09T22:19:27.469056","MEAN_MOTION":15.00329659,"ECCENTRICITY":0.00425262,"INCLINATION":97.8171,"RA_OF_ASC_NODE":30.7553,"ARG_OF_PERICENTER":219.1599,"MEAN_ANOMALY":140.6545,"EPHEMERIS_TYPE":0,"CLASSIFICATION_TYPE":"U","NORAD_CAT_ID":39417,"ELEMENT_SET_NO":999,"REV_AT_EPOCH":66584,"BSTAR":0.00042975473,"MEAN_MOTION_DOT":5.431e-5,"MEAN_MOTION_DDOT":0},{"OBJECT_NAME":"STARLINK-34794","OBJECT_ID":"2025-165Q","EPOCH":"2026-03-09T19:13:11.286912","MEAN_MOTION":15.05626104,"ECCENTRICITY":6.586e-5,"INCLINATION":97.6016,"RA_OF_ASC_NODE":147.2836,"ARG_OF_PERICENTER":163.6731,"MEAN_ANOMALY":196.4517,"EPHEMERIS_TYPE":0,"CLASSIFICATION_TYPE":"U","NORAD_CAT_ID":65070,"ELEMENT_SET_NO":999,"REV_AT_EPOCH":3480,"BSTAR":8.9258012e-5,"MEAN_MOTION_DOT":1.227e-5,"MEAN_MOTION_DDOT":0}]
